0 DELTA 1 DEB
1 09726U 73086GC  13281.46063273  .00000023  00000-0  58873-3 0  9667
2 09726 102.1066 265.1449 0080674 322.8714 189.8249 12.26111217713618
0 DELTA 1 DEB
1 09726U 73086GC  13285.92670296  .00000001  00000-0  39495-3 0  9677
2 09726 102.1067 269.4698 0080507 314.8703 103.0198 12.26112326714160
0 DELTA 1 DEB
1 09726U 73086GC  13289.53127150 -.00000012  00000-0  28028-3 0  9688
2 09726 102.1078 272.9602 0080506 308.2977 173.6754 12.26112636714609
0 DELTA 1 DEB
1 09726U 73086GC  13292.79482878  .00000015  00000-0  51761-3 0  9694
2 09726 102.1085 276.1212 0080460 302.4149 179.0382 12.26112682715009
0 DELTA 1 DEB
1 09726U 73086GC  13294.90158888  .00000011  00000-0  48538-3 0  9706
2 09726 102.1088 278.1619 0080435 298.6220 118.2850 12.26112935715267
